ONEWEB-0156             
1 48052U 21025L   25365.45128137 -.00000803  00000+0 -22346-2 0  9992
2 48052  87.8986 353.5465 0001520  85.8735 274.2567 13.13474810231553
ONEWEB-0161             
1 48053U 21025M   25365.50206336  .00000425  00000+0  11295-2 0  9996
2 48053  87.8983 353.5495 0001552  89.2945 270.8362 13.13468847231491
ONEWEB-0158             
1 48054U 21025N   25365.46142797 -.00000245  00000+0 -70687-3 0  9995
2 48054  87.8990 353.5432 0001935  78.2251 281.9095 13.13468638231612
ONEWEB-0157             
1 48055U 21025P   25365.48682523  .00000087  00000+0  20243-3 0  9999
2 48055  87.8988 353.5437 0001340  93.3709 266.7573 13.13469592231556
ONEWEB-0162             
1 48056U 21025Q   25365.46298488 -.00000275  00000+0 -78771-3 0  9991
2 48056  87.8989 353.5515 0001783  91.9803 268.1530 13.13469364231528
ONEWEB-0155             
1 48057U 21025R   25365.46989148 -.00000203  00000+0 -59160-3 0  9994
2 48057  87.8987 353.5540 0001536  84.2461 275.8843 13.13470221231667
ONEWEB-0149             
1 48058U 21025S   25365.49190093  .00000257  00000+0  66777-3 0  9990
2 48058  87.8988 353.5432 0001815  93.3855 266.7482 13.13469133231474
ONEWEB-0148             
1 48059U 21025T   25365.45465541 -.00000196  00000+0 -57124-3 0  9990
2 48059  87.8980 353.5692 0001849 105.5681 254.5652 13.13468661231597
ONEWEB-0160             
1 48060U 21025U   25365.47158730 -.00000163  00000+0 -48095-3 0  9994
2 48060  87.8979 353.5631 0002401  76.1571 283.9826 13.13469352231548
ONEWEB-0163             
1 48061U 21025V   25365.45635646 -.00000219  00000+0 -63406-3 0  9994
2 48061  87.8989 353.5539 0001432  89.1082 271.0211 13.13469816231665
ONEWEB-0159             
1 48062U 21025W   25365.44788348 -.00000023  00000+0 -97175-4 0  9996
2 48062  87.8991 353.5396 0001583  92.8318 267.2992 13.13468254231589
ONEWEB-0164             
1 48063U 21025X   25365.50544940  .00000390  00000+0  10325-2 0  9997
2 48063  87.8990 353.5348 0001738  83.1657 276.9670 13.13470374231572
ONEWEB-0167             
1 48064U 21025Y   25365.45720742 -.00000263  00000+0 -75408-3 0  9993
2 48064  87.8978 353.5706 0001147  67.4567 292.6683 13.13469946231556
ONEWEB-0166             
1 48065U 21025Z   25365.48005049 -.00000050  00000+0 -17268-3 0  9997
2 48065  87.8989 353.5234 0001731  93.0509 267.0818 13.13469716231635
ONEWEB-0151             
1 48066U 21025AA  25365.48174729  .00000007  00000+0 -16456-4 0  9990
2 48066  87.8988 353.5498 0001623  82.9588 277.1726 13.13469195231575
ONEWEB-0170             
1 48067U 21025AB  25365.49020836  .00000162  00000+0  40827-3 0  9990
2 48067  87.8984 353.5522 0001882  72.3279 287.8055 13.13468782231537
ONEWEB-0168             
1 48068U 21025AC  25365.47497116 -.00000142  00000+0 -42263-3 0  9994
2 48068  87.8990 353.5416 0001562  90.6031 269.5277 13.13469814231542
ONEWEB-0173             
1 48069U 21025AD  25365.46650583 -.00000317  00000+0 -90279-3 0  9997
2 48069  87.8991 353.5511 0001304  87.5412 272.5866 13.13469375231788
ONEWEB-0171             
1 48070U 21025AE  25365.50375444  .00000385  00000+0  10202-2 0  9994
2 48070  87.8977 353.5631 0001631  81.9693 278.1621 13.13469138231608
ONEWEB-0172             
1 48071U 21025AF  25365.48343463  .00000029  00000+0  45663-4 0  9994
2 48071  87.8987 353.5517 0001551  83.8990 276.2316 13.13469671232495
ONEWEB-0174             
1 48072U 21025AG  25365.46481471 -.00000323  00000+0 -91833-3 0  9993
2 48072  87.8982 353.5584 0001715  92.3269 267.8057 13.13469743231814
ONEWEB-0175             
1 48073U 21025AH  25365.49528730  .00000308  00000+0  80764-3 0  9999
2 48073  87.8988 353.5226 0001637  74.4708 285.6602 13.13469322231475
ONEWEB-0177             
1 48074U 21025AJ  25365.50714193  .00000364  00000+0  96259-3 0  9990
2 48074  87.8991 353.5398 0001562  91.8635 268.2673 13.13469045231667
ONEWEB-0178             
1 48075U 21025AK  25365.44971791 -.00000092  00000+0 -28583-3 0  9998
2 48075  87.8978 353.5903 0001467  80.9563 279.1732 13.13468412231707
ONEWEB-0108             
1 48076U 21025AL  25365.48513655  .00000086  00000+0  19955-3 0  9998
2 48076  87.8988 353.5338 0001911  88.8637 271.2711 13.13470662231636
ONEWEB-0169             
1 48077U 21025AM  25365.44110825  .00000176  00000+0  44598-3 0  9998
2 48077  87.8983 353.5627 0001902  88.9243 271.2104 13.13467824230289
ONEWEB-0176             
1 48210U 21031A   25365.41540051  .00000272  00000+0  69965-3 0  9991
2 48210  87.9008 323.1284 0001651  78.1042 282.0273 13.14501939226276
ONEWEB-0184             
1 48211U 21031B   25365.38843410 -.00000243  00000+0 -69081-3 0  9992
2 48211  87.9020 323.1171 0001524  51.9759 308.1508 13.14502067226240
ONEWEB-0179             
1 48212U 21031C   25365.35909917  .00000039  00000+0  70184-4 0  9993
2 48212  87.9014 323.1299 0001607  86.8104 273.3210 13.14503811226283
ONEWEB-0180             
1 48213U 21031D   25365.39160721 -.00000004  00000+0 -45757-4 0  9992
2 48213  87.9017 323.1216 0001364  81.0025 279.1259 13.14502279226177
ONEWEB-0218             
1 48214U 21031E   25365.41380133  .00000246  00000+0  62939-3 0  9993
2 48214  87.9018 323.1176 0001207  49.2301 310.8933 13.14504539226334
ONEWEB-0209             
1 48215U 21031F   25365.40271086  .00000088  00000+0  20398-3 0  9996
2 48215  87.9003 323.1543 0001570  85.2511 274.8798 13.14502681226337
ONEWEB-0198             
1 48216U 21031G   25365.38698289 -.00000146  00000+0 -42939-3 0  9994
2 48216  87.9005 323.1548 0001294  78.8326 281.2949 13.14501628226442
ONEWEB-0189             
1 48217U 21031H   25365.39953068  .00000096  00000+0  22380-3 0  9995
2 48217  87.9010 323.1267 0001363  78.0021 282.1261 13.14501511226187
ONEWEB-0196             
1 48218U 21031J   25365.37732179 -.00000182  00000+0 -52442-3 0  9992
2 48218  87.9002 323.1441 0001592  81.0348 279.0961 13.14504874226180
ONEWEB-0183             
1 48219U 21031K   25365.42808288  .00000217  00000+0  55129-3 0  9996
2 48219  87.8999 323.1368 0001814  87.1915 272.9422 13.14502486226289
ONEWEB-0185             
1 48220U 21031L   25365.45422948 -.00000192  00000+0 -55312-3 0  9994
2 48220  87.9015 323.1114 0001629  97.1004 263.0311 13.14504303226215
ONEWEB-0187             
1 48221U 21031M   25365.35817071  .00000071  00000+0  15582-3 0  9998
2 48221  87.9005 323.1695 0001526  85.7630 274.3674 13.14501900226210
ONEWEB-0192             
1 48222U 21031N   25365.32818006  .00000148  00000+0  36402-3 0  9994
2 48222  87.9000 323.1649 0001660  78.4322 281.6994 13.14502343226129
ONEWEB-0219             
1 48223U 21031P   25365.38367381 -.00000215  00000+0 -61542-3 0  9996
2 48223  87.9009 323.1337 0001590  88.4030 271.7282 13.14501589226336
ONEWEB-0202             
1 48224U 21031Q   25365.44076280 -.00000032  00000+0 -12125-3 0  9999
2 48224  87.9005 323.1330 0001151  62.0822 298.0424 13.14502357226329
ONEWEB-0204             
1 48225U 21031R   25365.39875030 -.00000011  00000+0 -63799-4 0  9995
2 48225  87.9007 323.1325 0001848  89.7096 270.4245 13.14505138226211
ONEWEB-0205             
1 48226U 21031S   25365.37416113 -.00000201  00000+0 -57597-3 0  9996
2 48226  87.9007 323.1306 0001639  85.9132 274.2185 13.14501551226229
ONEWEB-0206             
1 48227U 21031T   25365.42332992 -.00000187  00000+0 -53933-3 0  9998
2 48227  87.8979 323.1147 0002166  62.8236 297.3115 13.14504162226180
ONEWEB-0182             
1 48228U 21031U   25365.41856882  .00000239  00000+0  61062-3 0  9995
2 48228  87.8997 323.1388 0001852  85.8854 274.2487 13.14502458226395
ONEWEB-0186             
1 48229U 21031V   25365.42966796  .00000184  00000+0  46294-3 0  9992
2 48229  87.9016 323.1161 0001637  83.2020 276.9296 13.14501732226342
ONEWEB-0181             
1 48230U 21031W   25365.40746681  .00000145  00000+0  35750-3 0  9993
2 48230  87.9001 323.1717 0001557  79.4588 280.6717 13.14501321226199
ONEWEB-0188             
1 48231U 21031X   25365.44551959 -.00000124  00000+0 -37026-3 0  9997
2 48231  87.9000 323.1615 0001742  81.8416 278.2911 13.14502541226104
ONEWEB-0220             
1 48232U 21031Y   25365.40904872  .00000190  00000+0  47862-3 0  9990
2 48232  87.9015 323.1193 0001611  87.2978 272.8336 13.14502155226360
ONEWEB-0165             
1 48233U 21031Z   25365.43759890  .00000017  00000+0  11849-4 0  9997
2 48233  87.8999 323.1373 0001423  75.4149 284.7139 13.14502110226321
ONEWEB-0199             
1 48234U 21031AA  25365.42174410  .00000303  00000+0  78205-3 0  9992
2 48234  87.9009 323.1176 0001870  78.4721 281.6618 13.14501899226221
ONEWEB-0203             
1 48235U 21031AB  25365.41222375  .00000211  00000+0  53553-3 0  9993
2 48235  87.9005 323.1197 0001682  70.2560 289.8751 13.14502024226233
ONEWEB-0197             
1 48236U 21031AC  25365.38670669 -.00000138  00000+0 -40542-3 0  9997
2 48236  87.9006 323.1237 0001939  89.2725 270.8627 13.14502111226147
ONEWEB-0194             
1 48237U 21031AD  25365.44234694 -.00000093  00000+0 -28466-3 0  9990
2 48237  87.9009 323.1298 0001913  74.2908 285.8433 13.14501220226328
ONEWEB-0193             
1 48238U 21031AE  25365.38208861 -.00000274  00000+0 -77451-3 0  9990
2 48238  87.9008 323.1357 0002107  72.3033 287.8327 13.14501658226260
ONEWEB-0191             
1 48239U 21031AF  25365.39319968 -.00000025  00000+0 -10073-3 0  9994
2 48239  87.9012 323.1249 0001829  81.2416 278.8921 13.14503714226120
ONEWEB-0195             
1 48240U 21031AG  25365.44631692 -.00000132  00000+0 -39039-3 0  9995
2 48240  87.9019 323.1120 0001365  76.7608 283.3674 13.14503346226110
ONEWEB-0201             
1 48241U 21031AH  25365.43457245  .00000049  00000+0  97459-4 0  9991
2 48241  87.9000 323.1497 0001646  90.8310 269.3009 13.14503929226345
ONEWEB-0207             
1 48242U 21031AJ  25365.41460089  .00000262  00000+0  67339-3 0  9990
2 48242  87.9012 323.1191 0001714  87.4341 272.6985 13.14504203226258
